ONEWEB-0120             
1 47266U 20100J   26156.48845230 -.00000363  00000+0 -10452-2 0  9999
2 47266  87.8940 352.9982 0001692  94.0378 266.0943 13.12442649263197
ONEWEB-0121             
1 47267U 20100K   26156.47645443  .00000002  00000+0 -29683-4 0  9990
2 47267  87.8952 352.9859 0001843  79.4438 280.6898 13.12441921263100
ONEWEB-0122             
1 47268U 20100L   26156.47053341  .00000093  00000+0  22398-3 0  9995
2 47268  87.8956 352.9918 0001516  95.9915 264.1386 13.12440410263012
ONEWEB-0123             
1 47269U 20100M   26156.46629714  .00000203  00000+0  52790-3 0  9990
2 47269  87.8943 353.0015 0001868  94.9550 265.1792 13.12442467263154
ONEWEB-0124             
1 47270U 20100N   26156.45613236  .00000480  00000+0  12990-2 0  9997
2 47270  87.8939 353.0059 0001826  86.9720 273.1617 13.12443431263037
ONEWEB-0125             
1 47271U 20100P   26156.51033575 -.00000221  00000+0 -64837-3 0  9990
2 47271  87.8951 352.9772 0002048  84.0490 276.0872 13.12444878263101
ONEWEB-0126             
1 47272U 20100Q   26156.45457675  .00000423  00000+0  11410-2 0  9995
2 47272  87.8946 353.0050 0001732  91.8782 268.2545 13.12442233263165
ONEWEB-0127             
1 47273U 20100R   26156.49677594 -.00000295  00000+0 -85420-3 0  9996
2 47273  87.8940 352.9957 0001775  94.1724 265.9607 13.12443716263196
ONEWEB-0128             
1 47274U 20100S   26156.51880269  .00000048  00000+0  98321-4 0  9994
2 47274  87.8937 353.0051 0001521  81.8726 278.2575 13.12443299263214
ONEWEB-0129             
1 47275U 20100T   26156.49847019 -.00000448  00000+0 -12794-2 0  9992
2 47275  87.8949 352.9818 0001756 122.6165 237.5133 13.12442716263141
ONEWEB-0130             
1 47276U 20100U   26156.44935396  .00000426  00000+0  11496-2 0  9996
2 47276  87.8950 352.9865 0001695  92.1944 267.9379 13.12443529263102
ONEWEB-0131             
1 47277U 20100V   26156.52219574  .00000186  00000+0  48044-3 0  9992
2 47277  87.8938 352.9917 0001733  89.0953 271.0374 13.12444083263157
ONEWEB-0132             
1 47278U 20100W   26156.47476563  .00000069  00000+0  15692-3 0  9993
2 47278  87.8943 353.0025 0001715  85.7756 274.3568 13.12442230263041
ONEWEB-0133             
1 47279U 20100X   26156.49155764 -.00000478  00000+0 -13639-2 0  9997
2 47279  87.8953 352.9737 0001651  91.2803 268.8515 13.12443401263204
ONEWEB-0134             
1 47280U 20100Y   26156.46120779  .00000466  00000+0  12612-2 0  9999
2 47280  87.8953 352.9772 0001521  92.7757 267.3546 13.12443271263174
ONEWEB-0135             
1 47281U 20100Z   26156.50863963 -.00000236  00000+0 -69138-3 0  9997
2 47281  87.8940 352.9922 0001448  88.2600 271.8695 13.12444399263204
